HST                     
1 20580U 90037B   22037.46913586  .00002091  00000+0  11457-3 0  9992
2 20580  28.4708 316.3315 0002712  66.9442  99.6889 15.10007694546390
POLAR                   
1 23802U 96013A   22033.24899116  .00000270  00000+0  00000+0 0  9991
2 23802  78.7371 242.9781 5871763 263.4723  30.6126  1.29846865124135
SWAS                    
1 25560U 98071A   22037.19652672  .00001567  00000+0  15380-3 0  9993
2 25560  69.8999 316.7773 0007569 183.9812 176.1285 14.94347159258410
CXO                     
1 25867U 99040B   22038.46936264  .00000355  00000+0  00000+0 0  9996
2 25867  48.9736 243.7437 8663825 229.7476   0.2179  0.37804103 11313
XMM-NEWTON              
1 25989U 99066A   22038.85977073  .00000079  00000+0  00000+0 0  9998
2 25989  70.3953 307.1858 6225577  88.1359   0.1716  0.50136017 15039
TERRA                   
1 25994U 99068A   22037.52377528  .00000248  00000+0  64855-4 0  9999
2 25994  98.1519 112.3641 0001211  92.1443 324.5559 14.57141247177431
CLUSTER II-FM7 (SAMBA)  
1 26410U 00041A   22039.94946370  .00000017  00000+0  00000+0 0  9992
2 26410 133.6516 346.5589 5368479 196.9563 359.3396  0.44219585 13247
CLUSTER II-FM6 (SALSA)  
1 26411U 00041B   22039.94055902  .00000133  00000+0  00000+0 0  9994
2 26411 135.2839 349.3273 6974786 201.4992 359.2779  0.44221241 13288
CLUSTER II-FM5 (RUMBA)  
1 26463U 00045A   22039.94471881  .00000200  00000+0  00000+0 0  9998
2 26463 138.8753 349.5419 6501760 202.1555 359.3278  0.44221002 13172
CLUSTER II-FM8 (TANGO)  
1 26464U 00045B   22039.94827196  .00000017  00000+0  00000+0 0  9999
2 26464 133.6566 346.5497 5367531 196.9505 359.3359  0.44219563 13259
ODIN                    
1 26702U 01007A   22037.53115393  .00003195  00000+0  20566-3 0  9998
2 26702  97.5287  54.7021 0011116  26.4154 333.7639 15.09035517146526
TIMED                   
1 26998U 01055B   22037.52405531  .00000749  00000+0  84676-4 0  9998
2 26998  74.0724 180.4355 0000252 270.2114  89.9038 14.88451851 93523
RHESSI                  
1 27370U 02004A   22037.55608880  .00016049  00000+0  41798-3 0  9990
2 27370  38.0327  95.6329 0011491 204.9700 155.0518 15.38203073106415
INTEGRAL                
1 27540U 02048A   22032.92929398 -.00000049  00000+0  00000+0 0  9994
2 27540  71.3003  68.1559 8957459 299.7178 166.9439  0.37567598 20637
CORIOLIS                
1 27640U 03001A   22037.67687213  .00000048  00000+0  43570-4 0  9991
2 27640  98.7207  48.7442 0015170 112.3291   0.8326 14.19101351988400
SORCE                   
1 27651U 03004A   22037.53989934  .00000944  00000+0  11085-3 0  9996
2 27651  39.9938 228.2491 0024490 272.8657  86.9329 14.89545207 33545
MOST                    
1 27843U 03031D   22037.56760224  .00000031  00000+0  34879-4 0  9995
2 27843  98.7097  47.0838 0010347 159.9675 200.1910 14.20660188964663
SCISAT 1                
1 27858U 03036A   22037.55903991  .00000347  00000+0  53753-4 0  9997
2 27858  73.9323  82.5036 0007252 161.9327 198.2107 14.77432184996090
SWIFT                   
1 28485U 04047A   22037.52434842  .00003439  00000+0  20148-3 0  9994
2 28485  20.5564 148.8714 0011186  79.4665 280.7029 15.05534452943781
CLOUDSAT                
1 29107U 06016A   22037.48716579  .00000231  00000+0  54766-4 0  9990
2 29107  98.3118 356.5641 0003209  16.7522 343.3785 14.62784076839882
CALIPSO                 
1 29108U 06016B   22037.54892425  .00000717  00000+0  15029-3 0  9990
2 29108  98.3086 356.2540 0001352  83.3842 276.7513 14.62706527839887
HINODE (SOLAR-B)        
1 29479U 06041A   22037.55598400  .00000352  00000+0  75170-4 0  9995
2 29479  98.1286  54.3427 0017278 278.7883  81.1363 14.64682941821592
SJ-6C                   
1 29505U 06046A   22037.44384626  .00001007  00000+0  96161-4 0  9992
2 29505  97.7880  59.3046 0003958 180.3117 179.8120 14.95508978833115
SJ-6D                   
1 29506U 06046B   22037.26235550  .00000750  00000+0  76262-4 0  9998
2 29506  97.8071  59.3329 0000893 329.2000  30.9175 14.93734697832554
AGILE                   
1 31135U 07013A   22036.97855270  .00010525  00000+0  26231-3 0  9999
2 31135   2.4664 186.6480 0010797 186.9091 173.0814 15.35248260456698
AIM                     
1 31304U 07015A   22037.49365804  .00006652  00000+0  35350-3 0  9994
2 31304  97.8589 312.0250 0006648 101.5524 258.6454 15.15628800811341
FGRST (GLAST)           
1 33053U 08029A   22037.49473118  .00001725  00000+0  81336-4 0  9993
2 33053  25.5838 339.8835 0012474 102.9004 257.2925 15.11788016753858
IBEX                    
1 33401U 08051A   22019.38888889 -.00001658  00000+0  00000+0 0  9998
2 33401  44.9273  44.3145 5093472  45.4837   3.9013  0.10593383  5344
WISE                    
1 36119U 09071A   22037.56165107  .00005112  00000+0  16814-3 0  9993
2 36119  97.2581  74.6280 0003947  67.3488 292.8171 15.31952432675452
SDO                     
1 36395U 10005A   22037.20605106 -.00000083  00000+0  00000+0 0  9996
2 36395  31.4025 111.3571 0001844 223.0396 133.6972  1.00276766 44097
CRYOSAT 2               
1 36508U 10013A   22037.58205000  .00000165  00000+0  40319-4 0  9993
2 36508  92.0234 252.3867 0005110 357.6912   2.4271 14.51903737627143
X-SAT                   
1 37389U 11015C   22037.43199568  .00000044  00000+0  36963-4 0  9995
2 37389  98.3535  77.2368 0013746 341.4437  18.6250 14.24401637561551
GCOM-W1 (SHIZUKU)       
1 38337U 12025A   22037.42001440  .00000356  00000+0  89070-4 0  9994
2 38337  98.2061 339.9570 0000713  88.5109  21.4074 14.57091281517234
NUSTAR                  
1 38358U 12031A   22036.97881539  .00002349  00000+0  16998-3 0  9990
2 38358   6.0256 239.9658 0012205 242.6602 117.2284 14.88840610525223
NEOSSAT                 
1 39089U 13009D   22037.54891775  .00000124  00000+0  59176-4 0  9990
2 39089  98.4274 237.0684 0010436 311.1252  48.9032 14.34614605468440
BRITE-AUSTRIA           
1 39091U 13009F   22037.49947553  .00000097  00000+0  48750-4 0  9998
2 39091  98.4117 238.1371 0009638 312.8044  47.2331 14.35226623468649
IRIS                    
1 39197U 13033A   22037.54826427  .00000740  00000+0  10656-3 0  9992
2 39197  97.9662 224.5729 0028816  92.4759 267.9752 14.79020022464629
HISAKI (SPRINT-A)       
1 39253U 13049A   22037.40620232  .00000109  00000+0  63420-4 0  9990
2 39253  29.7211  30.6960 0137261  75.2687 286.3053 13.55257948415315
CASSIOPE                
1 39265U 13055A   22037.54074031  .00016466  00000+0  45121-3 0  9995
2 39265  80.9654  45.8217 0635787 345.4310  12.9253 14.35385709433537
STSAT-3                 
1 39422U 13066G   22037.56002817  .00000915  00000+0  99513-4 0  9994
2 39422  97.4720  49.7814 0022927   2.4234 357.7106 14.90131702446349
SWARM B                 
1 39451U 13067A   22037.56665924  .00002057  00000+0  87536-4 0  9992
2 39451  87.7482 100.5538 0004048  91.9461 268.2249 15.22420741441031
SWARM A                 
1 39452U 13067B   22037.58214652  .00006413  00000+0  12620-3 0  9994
2 39452  87.3568 272.2901 0002831 100.7712 259.3866 15.47020811461714
SWARM C                 
1 39453U 13067C   22037.58206453  .00006390  00000+0  12574-3 0  9997
2 39453  87.3420 272.0277 0002825 100.9255 259.2322 15.47019925461678
BRITE-CA1 (TORONTO)     
1 40020U 14033L   22037.45402468  .00000435  00000+0  82180-4 0  9998
2 40020  97.7593 203.2240 0086252 322.0633  37.4515 14.66850865408458
OCO 2                   
1 40059U 14035A   22037.53298557  .00000303  00000+0  77375-4 0  9997
2 40059  98.1953 340.8419 0001370  88.3773 271.7583 14.57105591404268
BRITE-PL2 (HEWELIUSZ)   
1 40119U 14049B   22037.48668400  .00000824  00000+0  10327-3 0  9992
2 40119  97.8837 134.5226 0016267 314.0129  45.9744 14.84829578404573
RESURS P2               
1 40360U 14087A   22037.53598584  .00004558  00000+0  13558-3 0  9990
2 40360  97.2155 125.1639 0008892 190.7247 294.1325 15.35198141398169
MMS 1                   
1 40482U 15011A   22035.39583333 -.00001917  00000+0  00000+0 0  9992
2 40482  33.3441 111.0118 8551655  44.2353 166.2437  0.28444681 12927
MMS 2                   
1 40483U 15011B   22035.39583333 -.00001917  00000+0  00000+0 0  9993
2 40483  33.3423 111.0150 8551071  44.2411 166.2162  0.28444626 12981
MMS 3                   
1 40484U 15011C   22035.39583333 -.00001918  00000+0  00000+0 0  9995
2 40484  33.3466 111.0642 8555299  44.2285 166.2535  0.28449204 12666
MMS 4                   
1 40485U 15011D   22021.20833333 -.00001550  00000+0  00000+0 0  9991
2 40485  33.3349 111.3679 8526881  43.4204 156.2432  0.28428872 12839
ASTROSAT                
1 40930U 15052A   22037.16327300  .00001251  00000+0  86273-4 0  9993
2 40930   5.9981  34.4283 0008170  98.5523 261.5530 14.76482661343717
DAMPE                   
1 41173U 15078A   22037.58408650  .00000702  00000+0  31695-4 0  9993
2 41173  97.3679  30.4469 0012254 306.5272 193.1192 15.24180470341640
PISAT                   
1 41784U 16059B   22037.37650289  .00000465  00000+0  97646-4 0  9999
2 41784  97.9362  85.7129 0031020 222.0160 137.8664 14.63743250286515
HXMT (HUIYAN)           
1 42758U 17034A   22037.59189630  .00002591  00000+0  17148-3 0  9996
2 42758  43.0184 347.5768 0007781 190.0330 339.5602 15.09669164256397
FLYING LAPTOP           
1 42831U 17042G   22037.58492551  .00001447  00000+0  14942-3 0  9993
2 42831  97.4390 259.5308 0015675  85.4482 274.8510 14.91504979248582
PICSAT                  
1 43132U 18004X   22037.19029387  .00010891  00000+0  40232-3 0  9991
2 43132  97.3857 114.5844 0009901 102.0846 258.1504 15.27864227226347
ZHANGZHENG-1 (CSES)     
1 43194U 18015C   22037.61395758  .00006812  00000+0  31065-3 0  9998
2 43194  97.5028 168.7219 0011737 180.6019 307.2759 15.20905501222739
ICON                    
1 44628U 19068A   22037.44705056  .00002023  00000+0  17363-3 0  9992
2 44628  26.9899  84.4482 0018682   2.2550 357.8090 14.92287968126971
SALSAT                  
1 46495U 20068K   22037.44405373  .00002868  00000+0  21231-3 0  9993
2 46495  97.7182 338.8808 0016889   5.3848 354.7556 15.03854054 74496
IXPE                    
1 49954U 21121A   22036.98354707  .00002491  00000+0  17094-3 0  9993
2 49954   0.2289 267.7270 0011289 162.7946 289.6003 14.90851065  8781
